NORAD_CAT_ID,OBJECT_NAME,OBJECT_TYPE,EPOCH,MEAN_MOTION,ECCENTRICITY,INCLINATION,RA_OF_ASC_NODE,ARG_OF_PERICENTER,MEAN_ANOMALY,BSTAR,MEAN_MOTION_DOT,MEAN_MOTION_DDOT,TLE_LINE0,TLE_LINE1,TLE_LINE2,SEMIMAJOR_AXIS,PERIOD,APOGEE,PERIGEE,DECAYED
52102.0,STARLINK-3709,PAYLOAD,2023-05-13 23:14:48,15.08836323,9.35e-05,53.2177,26.2065,97.9288,262.181,2.8687e-05,1.69e-06,0.0,0 STARLINK-3709,1 52102U 22029Q   23133.96861347  .00000169  00000-0  28687-4 0  9992,2 52102  53.2177  26.2065 0000935  97.9288 262.1810 15.08836323 65187,6917.892,95.438,540.403,539.11,0.0
52102.0,STARLINK-3709,PAYLOAD,2023-05-14 04:00:57,15.08843045,9.64e-05,53.2179,25.3149,91.5092,268.601,8.4791e-05,1.062e-05,0.0,0 STARLINK-3709,1 52102U 22029Q   23134.16732850  .00001062  00000-0  84791-4 0  9992,2 52102  53.2179  25.3149 0000964  91.5092 268.6010 15.08843045 65213,6917.871,95.437,540.403,539.069,0.0
52102.0,STARLINK-3709,PAYLOAD,2023-05-14 21:30:11,15.08845923,0.0001266,53.2184,22.0464,64.6668,295.4455,4.2278e-05,3.85e-06,0.0,0 STARLINK-3709,1 52102U 22029Q   23134.89596848  .00000385  00000-0  42278-4 0  9998,2 52102  53.2184  22.0464 0001266  64.6668 295.4455 15.08845923 65329,6917.862,95.437,540.603,538.851,0.0
52102.0,STARLINK-3709,PAYLOAD,2023-05-14 23:05:34,15.08855598,0.0001278,53.2184,21.7461,80.4163,279.6974,-5.9622e-07,-2.97e-06,0.0,0 STARLINK-3709,1 52102U 22029Q   23134.96220148 -.00000297  00000-0 -59622-6 0  9990,2 52102  53.2184  21.7461 0001278  80.4163 279.6974 15.08855598 65331,6917.833,95.437,540.582,538.814,0.0
52102.0,STARLINK-3709,PAYLOAD,2023-05-15 22:56:22,15.08836145,0.0001363,53.2186,17.2872,93.7063,266.4086,5.1521e-06,-2.06e-06,0.0,0 STARLINK-3709,1 52102U 22029Q   23135.95581558 -.00000206  00000-0  51521-5 0  9993,2 52102  53.2186  17.2872 0001363  93.7063 266.4086 15.08836145 65481,6917.892,95.438,540.7,538.814,0.0
52102.0,STARLINK-3709,PAYLOAD,2023-05-16 14:50:14,15.08813522,0.0001354,53.2182,14.3115,99.5099,260.6046,0.00033409,5.029e-05,0.0,0 STARLINK-3709,1 52102U 22029Q   23136.61822419  .00005029  00000-0  33409-3 0  9991,2 52102  53.2182  14.3115 0001354  99.5099 260.6046 15.08813522 65585,6917.961,95.439,540.763,538.89,0.0
52102.0,STARLINK-3709,PAYLOAD,2023-05-16 22:47:08,15.08864122,0.0001175,53.2187,12.8273,94.3192,265.7934,-0.00031062,-5.231e-05,0.0,0 STARLINK-3709,1 52102U 22029Q   23136.94940682 -.00005231  00000-0 -31062-3 0  9990,2 52102  53.2187  12.8273 0001175  94.3192 265.7934 15.08864122 65636,6917.807,95.436,540.485,538.859,0.0
52102.0,STARLINK-3709,PAYLOAD,2023-05-17 19:27:10,15.08832113,0.0001206,53.2184,8.9615,95.0054,265.1076,3.931e-05,3.38e-06,0.0,0 STARLINK-3709,1 52102U 22029Q   23137.81053887  .00000338  00000-0  39310-4 0  9995,2 52102  53.2184   8.9615 0001206  95.0054 265.1076 15.08832113 65769,6917.904,95.438,540.604,538.935,0.0
52102.0,STARLINK-3709,PAYLOAD,2023-05-17 22:37:56,15.08826641,0.0001148,53.2181,8.3657,111.4818,248.6296,0.00018108,2.594e-05,0.0,0 STARLINK-3709,1 52102U 22029Q   23137.94301709  .00002594  00000-0  18108-3 0  9995,2 52102  53.2181   8.3657 0001148 111.4818 248.6296 15.08826641 65783,6917.921,95.438,540.58,538.992,0.0
52102.0,STARLINK-3709,PAYLOAD,2023-05-18 14:31:47,15.08860331,0.0001167,53.2184,5.3922,87.802,272.3106,-0.0002709,-4.599e-05,0.0,0 STARLINK-3709,1 52102U 22029Q   23138.60541591 -.00004599  00000-0 -27090-3 0  9993,2 52102  53.2184   5.3922 0001167  87.8020 272.3106 15.08860331 65889,6917.818,95.436,540.491,538.876,0.0
52102.0,STARLINK-3709,PAYLOAD,2023-05-18 16:07:11,15.0883729,0.0001107,53.2181,5.0938,88.2266,271.8853,-4.1813e-06,-3.54e-06,0.0,0 STARLINK-3709,1 52102U 22029Q   23138.67165968 -.00000354  00000-0 -41813-5 0  9996,2 52102  53.2181   5.0938 0001107  88.2266 271.8853 15.08837290 65893,6917.889,95.438,540.519,538.988,0.0
52102.0,STARLINK-3709,PAYLOAD,2023-05-19 00:04:06,15.08841115,0.0001053,53.2177,3.6067,87.9867,272.1246,3.0112e-05,1.92e-06,0.0,0 STARLINK-3709,1 52102U 22029Q   23139.00285627  .00000192  00000-0  30112-4 0  9996,2 52102  53.2177   3.6067 0001053  87.9867 272.1246 15.08841115 65945,6917.877,95.437,540.47,539.014,0.0
52102.0,STARLINK-3709,PAYLOAD,2023-05-19 20:44:07,15.08843541,0.0001059,53.2177,359.7411,89.1062,271.0052,7.684e-05,9.35e-06,0.0,0 STARLINK-3709,1 52102U 22029Q   23139.86397402  .00000935  00000-0  76840-4 0  9998,2 52102  53.2177 359.7411 0001059  89.1062 271.0052 15.08843541 66073,6917.87,95.437,540.467,539.002,0.0
52102.0,STARLINK-3709,PAYLOAD,2023-05-19 23:54:53,15.08848111,0.00011,53.2178,359.1462,86.6196,273.4922,0.00010833,1.437e-05,0.0,0 STARLINK-3709,1 52102U 22029Q   23139.99645003  .00001437  00000-0  10833-3 0  9992,2 52102  53.2178 359.1462 0001100  86.6196 273.4922 15.08848111 66093,6917.856,95.437,540.482,538.96,0.0
52102.0,STARLINK-3709,PAYLOAD,2023-05-20 20:34:54,15.08843593,0.0001169,53.2175,355.2797,90.8655,269.2472,6.0794e-05,6.8e-06,0.0,0 STARLINK-3709,1 52102U 22029Q   23140.85757292  .00000680  00000-0  60794-4 0  9994,2 52102  53.2175 355.2797 0001169  90.8655 269.2472 15.08843593 66227,6917.869,95.437,540.543,538.926,0.0
52102.0,STARLINK-3709,PAYLOAD,2023-05-21 20:25:42,15.08837028,0.0001298,53.2182,350.8192,92.0054,268.1087,-6.9611e-05,-1.395e-05,0.0,0 STARLINK-3709,1 52102U 22029Q   23141.85118366 -.00001395  00000-0 -69611-4 0  9991,2 52102  53.2182 350.8192 0001298  92.0054 268.1087 15.08837028 66377,6917.889,95.438,540.652,538.857,0.0
52102.0,STARLINK-3709,PAYLOAD,2023-05-22 13:54:56,15.0884546,9.49e-05,53.218,347.5498,80.6622,279.4478,-2.4686e-05,-6.81e-06,0.0,0 STARLINK-3709,1 52102U 22029Q   23142.57981982 -.00000681  00000-0 -24686-4 0  9993,2 52102  53.2180 347.5498 0000949  80.6622 279.4478 15.08845460 66483,6917.864,95.437,540.385,539.072,0.0
52102.0,STARLINK-3709,PAYLOAD,2023-05-22 20:16:28,15.0885629,0.0001045,53.2181,346.3618,81.264,278.8471,3.4477e-05,2.61e-06,0.0,0 STARLINK-3709,1 52102U 22029Q   23142.84477028  .00000261  00000-0  34477-4 0  9995,2 52102  53.2181 346.3618 0001045  81.2640 278.8471 15.08856290 66524,6917.831,95.437,540.419,538.973,0.0
52102.0,STARLINK-3709,PAYLOAD,2023-05-23 02:38:00,15.08857831,0.0001039,53.2174,345.1713,79.4808,280.6301,8.1937e-05,1.017e-05,0.0,0 STARLINK-3709,1 52102U 22029Q   23143.10972444  .00001017  00000-0  81937-4 0  9990,2 52102  53.2174 345.1713 0001039  79.4808 280.6301 15.08857831 66566,6917.826,95.436,540.41,538.972,0.0
52102.0,STARLINK-3709,PAYLOAD,2023-05-23 12:10:21,15.08826167,9.66e-05,53.2172,343.3869,88.5131,271.5972,3.7759e-05,3.13e-06,0.0,0 STARLINK-3709,1 52102U 22029Q   23143.50718996  .00000313  00000-0  37759-4 0  9995,2 52102  53.2172 343.3869 0000966  88.5131 271.5972 15.08826167 66622,6917.923,95.438,540.456,539.119,0.0
52102.0,STARLINK-3709,PAYLOAD,2023-05-23 16:56:30,15.08835417,0.0001013,53.2168,342.4956,78.1571,281.9535,0.00010714,1.418e-05,0.0,0 STARLINK-3709,1 52102U 22029Q   23143.70590566  .00001418  00000-0  10714-3 0  9996,2 52102  53.2168 342.4956 0001013  78.1571 281.9535 15.08835417 66652,6917.894,95.438,540.46,539.059,0.0
52102.0,STARLINK-3709,PAYLOAD,2023-05-23 21:42:39,15.08842488,0.0001004,53.217,341.6023,77.3795,282.7309,0.00017439,2.489e-05,0.0,0 STARLINK-3709,1 52102U 22029Q   23143.90462300  .00002489  00000-0  17439-3 0  9992,2 52102  53.2170 341.6023 0001004  77.3795 282.7309 15.08842488 66687,6917.873,95.437,540.432,539.043,0.0
52102.0,STARLINK-3709,PAYLOAD,2023-05-24 15:11:53,15.08842765,9.9e-05,53.2171,338.3311,71.1796,288.9303,0.00046813,7.171e-05,0.0,0 STARLINK-3709,1 52102U 22029Q   23144.63326374  .00007171  00000-0  46813-3 0  9994,2 52102  53.2171 338.3311 0000990  71.1796 288.9303 15.08842765 66799,6917.872,95.437,540.422,539.052,0.0
52102.0,STARLINK-3709,PAYLOAD,2023-05-25 18:13:27,15.08840065,0.0001015,53.2169,333.2754,76.4515,283.659,0.00012748,1.742e-05,0.0,0 STARLINK-3709,1 52102U 22029Q   23145.75934414  .00001742  00000-0  12748-3 0  9996,2 52102  53.2169 333.2754 0001015  76.4515 283.6590 15.08840065 66967,6917.88,95.438,540.447,539.043,0.0
52102.0,STARLINK-3709,PAYLOAD,2023-05-25 19:48:50,15.08840608,0.0001031,53.2169,332.9781,78.1456,281.9652,0.00013138,1.804e-05,0.0,0 STARLINK-3709,1 52102U 22029Q   23145.82558365  .00001804  00000-0  13138-3 0  9994,2 52102  53.2169 332.9781 0001031  78.1456 281.9652 15.08840608 66978,6917.879,95.438,540.457,539.03,0.0
52102.0,STARLINK-3709,PAYLOAD,2023-05-26 21:15:00,15.08842743,0.0001054,53.2172,328.2202,80.2419,279.8692,8.0799e-05,9.98e-06,0.0,0 STARLINK-3709,1 52102U 22029Q   23146.88542325  .00000998  00000-0  80799-4 0  9991,2 52102  53.2172 328.2202 0001054  80.2419 279.8692 15.08842743 67137,6917.872,95.437,540.466,539.008,0.0
52102.0,STARLINK-3709,PAYLOAD,2023-05-27 19:30:24,15.08841106,9.66e-05,53.2173,324.0584,79.2354,280.8746,5.7052e-05,6.2e-06,0.0,0 STARLINK-3709,1 52102U 22029Q   23147.81278841  .00000620  00000-0  57052-4 0  9992,2 52102  53.2173 324.0584 0000966  79.2354 280.8746 15.08841106 67271,6917.877,95.437,540.41,539.074,0.0
52102.0,STARLINK-3709,PAYLOAD,2023-05-28 05:02:43,15.08841441,9.76e-05,53.2173,322.2743,78.4805,281.6296,0.00010167,1.331e-05,0.0,0 STARLINK-3709,1 52102U 22029Q   23148.21022789  .00001331  00000-0  10167-3 0  9990,2 52102  53.2173 322.2743 0000976  78.4805 281.6296 15.08841441 67339,6917.876,95.437,540.416,539.066,0.0
52102.0,STARLINK-3709,PAYLOAD,2023-05-28 17:45:48,15.08846832,9.59e-05,53.2171,319.8955,83.5853,276.5249,0.00011614,1.561e-05,0.0,0 STARLINK-3709,1 52102U 22029Q   23148.74014429  .00001561  00000-0  11614-3 0  9993,2 52102  53.2171 319.8955 0000959  83.5853 276.5249 15.08846832 67414,6917.86,95.437,540.388,539.061,0.0
52102.0,STARLINK-3709,PAYLOAD,2023-05-29 04:53:30,15.08848843,9.66e-05,53.2171,317.814,77.1668,282.9432,0.00011197,1.495e-05,0.0,0 STARLINK-3709,1 52102U 22029Q   23149.20382196  .00001495  00000-0  11197-3 0  9996,2 52102  53.2171 317.8140 0000966  77.1668 282.9432 15.08848843 67485,6917.853,95.437,540.387,539.05,0.0
